{"type": "FeatureCollection", "features": [ {"type": "Feature", "properties": {"norad_id": 38552, "name": "METEOSAT-10 (MSG-3)", "group": "weather", "lat": 4.178298373321665, "lon": 161.98998446071735, "alt_km": 35787.14186624841, "timestamp": "2025-12-18T04:58:34.224235+00:00", "meta": {"OBJECT_NAME": "METEOSAT-10 (MSG-3)", "OBJECT_ID": "2012-035B", "EPOCH": "2025-12-17T08:11:30.501600", "MEAN_MOTION": 1.00276196, "ECCENTRICITY": 7e-05, "INCLINATION": 4.2391, "RA_OF_ASC_NODE": 61.7122, "ARG_OF_PERICENTER": 268.6203, "MEAN_ANOMALY": 239.0035, "EPHEMERIS_TYPE": 0, "CLASSIFICATION_TYPE": "U", "NORAD_CAT_ID": 38552, "ELEMENT_SET_NO": 999, "REV_AT_EPOCH": 4903, "BSTAR": 0, "MEAN_MOTION_DOT": 1.7e-07, "MEAN_MOTION_DDOT": 0}, "tle": {"line1": "1 38552U 12035B   25351.34132525  .00000017  00000+0  00000+0 0  9991", "line2": "2 38552   4.2391  61.7122 0000700 268.6203 239.0035  1.00276196 49037"}}, "geometry": {"type": "Point", "coordinates": [161.98998446071735, 4.178298373321665]}}, {"type": "Feature", "properties": {"norad_id": 38771, "name": "METOP-B", "group": "weather", "lat": -29.616038515864034, "lon": 47.05454645480873, "alt_km": 828.5746638149585, "timestamp": "2025-12-18T04:58:34.224247+00:00", "meta": {"OBJECT_NAME": "METOP-B", "OBJECT_ID": "2012-049A", "EPOCH": "2025-12-17T20:40:11.867808", "MEAN_MOTION": 14.21410289, "ECCENTRICITY": 0.000309, "INCLINATION": 98.6793, "RA_OF_ASC_NODE": 41.7331, "ARG_OF_PERICENTER": 133.3069, "MEAN_ANOMALY": 226.8367, "EPHEMERIS_TYPE": 0, "CLASSIFICATION_TYPE": "U", "NORAD_CAT_ID": 38771, "ELEMENT_SET_NO": 999, "REV_AT_EPOCH": 68750, "BSTAR": 7.7320839e-05, "MEAN_MOTION_DOT": 1.25e-06, "MEAN_MOTION_DDOT": 0}, "tle": {"line1": "1 38771U 12049A   25351.86124847  .00000125  00000+0  77321-4 0  9999", "line2": "2 38771  98.6793  41.7331 0003090 133.3069 226.8367 14.21410289687508"}}, "geometry": {"type": "Point", "coordinates": [47.05454645480873, -29.616038515864034]}}, {"type": "Feature", "properties": {"norad_id": 39216, "name": "INSAT-3D", "group": "weather", "lat": -0.6675965889831194, "lon": -68.81825151793048, "alt_km": 35783.473378938, "timestamp": "2025-12-18T04:58:34.224259+00:00", "meta": {"OBJECT_NAME": "INSAT-3D", "OBJECT_ID": "2013-038B", "EPOCH": "2025-12-17T17:21:59.330304", "MEAN_MOTION": 1.00267779, "ECCENTRICITY": 0.00012009, "INCLINATION": 1.4572, "RA_OF_ASC_NODE": 84.9421, "ARG_OF_PERICENTER": 166.0293, "MEAN_ANOMALY": 225.6028, "EPHEMERIS_TYPE": 0, "CLASSIFICATION_TYPE": "U", "NORAD_CAT_ID": 39216, "ELEMENT_SET_NO": 999, "REV_AT_EPOCH": 4526, "BSTAR": 0, "MEAN_MOTION_DOT": -3.16e-06, "MEAN_MOTION_DDOT": 0}, "tle": {"line1": "1 39216U 13038B   25351.72360336 -.00000316  00000+0  00000+0 0  9991", "line2": "2 39216   1.4572  84.9421 0001200 166.0293 225.6028  1.00267779 45261"}}, "geometry": {"type": "Point", "coordinates": [-68.81825151793048, -0.6675965889831194]}}, {"type": "Feature", "properties": {"norad_id": 39260, "name": "FENGYUN 3C", "group": "weather", "lat": 73.14836152124727, "lon": 179.11418727882105, "alt_km": 830.252370276221, "timestamp": "2025-12-18T04:58:34.224270+00:00", "meta": {"OBJECT_NAME": "FENGYUN 3C", "OBJECT_ID": "2013-052A", "EPOCH": "2025-12-17T21:41:53.583360", "MEAN_MOTION": 14.15697964, "ECCENTRICITY": 0.00145653, "INCLINATION": 98.4767, "RA_OF_ASC_NODE": 329.3314, "ARG_OF_PERICENTER": 180.9342, "MEAN_ANOMALY": 179.1808, "EPHEMERIS_TYPE": 0, "CLASSIFICATION_TYPE": "U", "NORAD_CAT_ID": 39260, "ELEMENT_SET_NO": 999, "REV_AT_EPOCH": 63291, "BSTAR": 7.1672092e-05, "MEAN_MOTION_DOT": 1e-06, "MEAN_MOTION_DDOT": 0}, "tle": {"line1": "1 39260U 13052A   25351.90409240  .00000100  00000+0  71672-4 0  9992", "line2": "2 39260  98.4767 329.3314 0014565 180.9342 179.1808 14.15697964632913"}}, "geometry": {"type": "Point", "coordinates": [179.11418727882105, 73.14836152124727]}}, {"type": "Feature", "properties": {"norad_id": 40069, "name": "METEOR-M 2", "group": "weather", "lat": -17.86965722573528, "lon": 146.82216023631136, "alt_km": 821.8630012112817, "timestamp": "2025-12-18T04:58:34.224282+00:00", "meta": {"OBJECT_NAME": "METEOR-M 2", "OBJECT_ID": "2014-037A", "EPOCH": "2025-12-17T22:58:45.603264", "MEAN_MOTION": 14.2138805, "ECCENTRICITY": 0.00052058, "INCLINATION": 98.4898, "RA_OF_ASC_NODE": 329.3421, "ARG_OF_PERICENTER": 193.2928, "MEAN_ANOMALY": 166.8114, "EPHEMERIS_TYPE": 0, "CLASSIFICATION_TYPE": "U", "NORAD_CAT_ID": 40069, "ELEMENT_SET_NO": 999, "REV_AT_EPOCH": 59357, "BSTAR": -9.308128e-06, "MEAN_MOTION_DOT": -6.2e-07, "MEAN_MOTION_DDOT": 0}, "tle": {"line1": "1 40069U 14037A   25351.95747226 -.00000062  00000+0 -93081-5 0  9997", "line2": "2 40069  98.4898 329.3421 0005205 193.2928 166.8114 14.21388050593575"}}, "geometry": {"type": "Point", "coordinates": [146.82216023631136, -17.86965722573528]}}, {"type": "Feature", "properties": {"norad_id": 40267, "name": "HIMAWARI-8", "group": "weather", "lat": -0.018496305218440205, "lon": -57.6241934113954, "alt_km": 35782.47473653062, "timestamp": "2025-12-18T04:58:34.224293+00:00", "meta": {"OBJECT_NAME": "HIMAWARI-8", "OBJECT_ID": "2014-060A", "EPOCH": "2025-12-17T20:50:37.363200", "MEAN_MOTION": 1.00272135, "ECCENTRICITY": 8.55e-05, "INCLINATION": 0.0056, "RA_OF_ASC_NODE": 43.9227, "ARG_OF_PERICENTER": 247.8636, "MEAN_ANOMALY": 248.2782, "EPHEMERIS_TYPE": 0, "CLASSIFICATION_TYPE": "U", "NORAD_CAT_ID": 40267, "ELEMENT_SET_NO": 999, "REV_AT_EPOCH": 4094, "BSTAR": 0, "MEAN_MOTION_DOT": -2.5e-06, "MEAN_MOTION_DDOT": 0}, "tle": {"line1": "1 40267U 14060A   25351.86848800 -.00000250  00000+0  00000+0 0  9994", "line2": "2 40267   0.0056  43.9227 0000855 247.8636 248.2782  1.00272135 40944"}}, "geometry": {"type": "Point", "coordinates": [-57.6241934113954, -0.018496305218440205]}}, {"type": "Feature", "properties": {"norad_id": 40367, "name": "FENGYUN 2G", "group": "weather", "lat": -0.5694136402860711, "lon": -98.96281620483578, "alt_km": 35777.56984924234, "timestamp": "2025-12-18T04:58:34.224305+00:00", "meta": {"OBJECT_NAME": "FENGYUN 2G", "OBJECT_ID": "2014-090A", "EPOCH": "2025-12-17T18:56:05.319744", "MEAN_MOTION": 1.00262461, "ECCENTRICITY": 0.00028119, "INCLINATION": 5.1808, "RA_OF_ASC_NODE": 75.0403, "ARG_OF_PERICENTER": 205.1147, "MEAN_ANOMALY": 189.902, "EPHEMERIS_TYPE": 0, "CLASSIFICATION_TYPE": "U", "NORAD_CAT_ID": 40367, "ELEMENT_SET_NO": 999, "REV_AT_EPOCH": 4018, "BSTAR": 0, "MEAN_MOTION_DOT": -2.79e-06, "MEAN_MOTION_DDOT": 0}, "tle": {"line1": "1 40367U 14090A   25351.78895046 -.00000279  00000+0  00000+0 0  9994", "line2": "2 40367   5.1808  75.0403 0002811 205.1147 189.9020  1.00262461 40189"}}, "geometry": {"type": "Point", "coordinates": [-98.96281620483578, -0.5694136402860711]}}, {"type": "Feature", "properties": {"norad_id": 40732, "name": "METEOSAT-11 (MSG-4)", "group": "weather", "lat": 2.7159404741430615, "lon": 170.93335880975647, "alt_km": 35783.4322377435, "timestamp": "2025-12-18T04:58:34.224318+00:00", "meta": {"OBJECT_NAME": "METEOSAT-11 (MSG-4)", "OBJECT_ID": "2015-034A", "EPOCH": "2025-12-17T18:30:22.781664", "MEAN_MOTION": 1.00269064, "ECCENTRICITY": 8.817e-05, "INCLINATION": 2.7485, "RA_OF_ASC_NODE": 71.9887, "ARG_OF_PERICENTER": 133.9438, "MEAN_ANOMALY": 167.5299, "EPHEMERIS_TYPE": 0, "CLASSIFICATION_TYPE": "U", "NORAD_CAT_ID": 40732, "ELEMENT_SET_NO": 999, "REV_AT_EPOCH": 539, "BSTAR": 0, "MEAN_MOTION_DOT": 8.4e-07, "MEAN_MOTION_DDOT": 0}, "tle": {"line1": "1 40732U 15034A   25351.77109701  .00000084  00000+0  00000+0 0  9997", "line2": "2 40732   2.7485  71.9887 0000881 133.9438 167.5299  1.00269064  5396"}}, "geometry": {"type": "Point", "coordinates": [170.93335880975647, 2.7159404741430615]}}, {"type": "Feature", "properties": {"norad_id": 41105, "name": "ELEKTRO-L 2", "group": "weather", "lat": 6.022832313795525, "lon": 147.11065920694773, "alt_km": 35795.962507642056, "timestamp": "2025-12-18T04:58:34.224329+00:00", "meta": {"OBJECT_NAME": "ELEKTRO-L 2", "OBJECT_ID": "2015-074A", "EPOCH": "2025-12-17T02:58:11.708832", "MEAN_MOTION": 1.00272669, "ECCENTRICITY": 0.00036686, "INCLINATION": 6.2364, "RA_OF_ASC_NODE": 72.7769, "ARG_OF_PERICENTER": 209.1186, "MEAN_ANOMALY": 194.171, "EPHEMERIS_TYPE": 0, "CLASSIFICATION_TYPE": "U", "NORAD_CAT_ID": 41105, "ELEMENT_SET_NO": 999, "REV_AT_EPOCH": 3668, "BSTAR": 0, "MEAN_MOTION_DOT": -9.8e-07, "MEAN_MOTION_DDOT": 0}, "tle": {"line1": "1 41105U 15074A   25351.12374663 -.00000098  00000+0  00000+0 0  9992", "line2": "2 41105   6.2364  72.7769 0003668 209.1186 194.1710  1.00272669 36681"}}, "geometry": {"type": "Point", "coordinates": [147.11065920694773, 6.022832313795525]}}, {"type": "Feature", "properties": {"norad_id": 41752, "name": "INSAT-3DR", "group": "weather", "lat": 0.026662877045268745, "lon": -124.40147431539917, "alt_km": 35737.39847495077, "timestamp": "2025-12-18T04:58:34.224341+00:00", "meta": {"OBJECT_NAME": "INSAT-3DR", "OBJECT_ID": "2016-054A", "EPOCH": "2025-12-17T19:54:35.915904", "MEAN_MOTION": 1.00271606, "ECCENTRICITY": 0.00141508, "INCLINATION": 0.1046, "RA_OF_ASC_NODE": 86.6056, "ARG_OF_PERICENTER": 184.762, "MEAN_ANOMALY": 187.9724, "EPHEMERIS_TYPE": 0, "CLASSIFICATION_TYPE": "U", "NORAD_CAT_ID": 41752, "ELEMENT_SET_NO": 999, "REV_AT_EPOCH": 3400, "BSTAR": 0, "MEAN_MOTION_DOT": -5.2e-07, "MEAN_MOTION_DDOT": 0}, "tle": {"line1": "1 41752U 16054A   25351.82958236 -.00000052  00000+0  00000+0 0  9990", "line2": "2 41752   0.1046  86.6056 0014150 184.7620 187.9724  1.00271606 34000"}}, "geometry": {"type": "Point", "coordinates": [-124.40147431539917, 0.026662877045268745]}}]}